{"type":"FeatureCollection","metadata":{"source":"© OpenStreetMap contributors, ODbL","osm_timestamp":"2026-10-06T22:02:50Z"},"features":[{"type":"Feature","geometry":{"type":"LineString","coordinates":[[24.5949,46.61112],[24.59586,46.6098],[24.5962,46.60918],[24.59644,46.60856],[24.59649,46.60734],[24.59631,46.60694],[24.59579,46.6064],[24.59526,46.60614],[24.59483,46.60597],[24.59437,46.60583],[24.5924,46.60558],[24.59191,46.60531],[24.59166,46.60505],[24.59153,46.60466],[24.59151,46.60444],[24.59156,46.60403],[24.59208,46.60174],[24.59199,46.60146],[24.59184,46.60124],[24.5914,46.60072],[24.59124,46.60059],[24.59043,46.60033],[24.58745,46.59995],[24.58694,46.5998],[24.58676,46.59965],[24.5866,46.59936],[24.58654,46.59812],[24.58615,46.59499],[24.58624,46.59453],[24.58656,46.59404],[24.58682,46.59375],[24.58726,46.59347],[24.5875,46.59341],[24.58801,46.59335],[24.58897,46.59341],[24.5898,46.59357],[24.59081,46.59385],[24.59148,46.59394],[24.59232,46.59394],[24.59273,46.59387],[24.593,46.59376],[24.59311,46.59364],[24.59324,46.59331],[24.59321,46.59285],[24.59304,46.5926],[24.59247,46.59203],[24.59074,46.59052],[24.59016,46.59015],[24.58918,46.58972],[24.58878,46.58948],[24.58829,46.58911],[24.58798,46.58879],[24.58771,46.58831],[24.58753,46.5877],[24.5872,46.58568],[24.5868,46.58484],[24.58604,46.58429],[24.58547,46.58413],[24.58466,46.58406],[24.58415,46.58405],[24.58355,46.5842],[24.58299,46.58448],[24.58204,46.58488],[24.58142,46.58499],[24.58055,46.58494],[24.58009,46.58487],[24.57958,46.58464],[24.57911,46.58436],[24.57877,46.58398],[24.57782,46.58182],[24.57737,46.58038],[24.57699,46.57992],[24.57656,46.57968],[24.5759,46.57946],[24.57523,46.57933],[24.57464,46.57928],[24.57423,46.57931],[24.57248,46.57972],[24.57164,46.57979],[24.57123,46.5798],[24.57062,46.57975],[24.56961,46.57964],[24.56906,46.5794],[24.56877,46.57914],[24.56859,46.57891],[24.56846,46.57829],[24.56841,46.57774],[24.56861,46.5768],[24.56928,46.5756],[24.57065,46.57393],[24.5711,46.57306],[24.57137,46.57233],[24.57144,46.57179],[24.57124,46.56942],[24.57142,46.56731],[24.57132,46.56674],[24.57119,46.56642],[24.56923,46.56432],[24.5689,46.56379],[24.56864,46.563],[24.5684,46.56141],[24.5679,46.56077],[24.56465,46.55979],[24.56279,46.55904],[24.5602,46.5577],[24.55814,46.55675],[24.55653,46.55596],[24.55562,46.55543],[24.55412,46.55471],[24.55261,46.55419],[24.54931,46.55325],[24.54799,46.55273],[24.54494,46.55136],[24.53028,46.54348],[24.52779,46.54217],[24.52597,46.54088],[24.52545,46.54028],[24.52473,46.53905],[24.52389,46.53735],[24.52369,46.5371],[24.52306,46.5367],[24.52179,46.53605],[24.52052,46.53543],[24.51776,46.53417],[24.51733,46.53402],[24.51621,46.53388],[24.51553,46.53387],[24.51482,46.5339],[24.51334,46.53405],[24.51293,46.53412],[24.51248,46.5343],[24.51114,46.53496],[24.51072,46.53508],[24.51024,46.53511],[24.50896,46.53514],[24.50856,46.53509],[24.50819,46.53497],[24.50738,46.53457],[24.50707,46.5343],[24.50683,46.53377],[24.50671,46.53313],[24.50661,46.5314],[24.50649,46.53057],[24.50617,46.52975],[24.50595,46.52935],[24.50552,46.52881],[24.50528,46.52862],[24.50482,46.52843],[24.50419,46.52823],[24.50336,46.52803],[24.50265,46.52777],[24.50204,46.52746],[24.50124,46.52676],[24.501,46.52648],[24.50088,46.5261],[24.50095,46.52554],[24.50118,46.52504],[24.50188,46.52403],[24.5023,46.52329],[24.50267,46.52275],[24.50276,46.5225],[24.50286,46.52181],[24.50311,46.52133],[24.50323,46.52101],[24.50321,46.52064],[24.50277,46.51996],[24.50014,46.51823],[24.49889,46.51745],[24.49738,46.51685],[24.49673,46.51649],[24.49592,46.51597],[24.49544,46.51572],[24.49497,46.51555],[24.49451,46.5153],[24.49437,46.51517],[24.49427,46.51499],[24.49409,46.51449],[24.49391,46.51432],[24.49191,46.51309],[24.49035,46.51196],[24.48926,46.5113],[24.48885,46.51109],[24.48851,46.51098],[24.48824,46.51094],[24.48739,46.5109],[24.48696,46.5108],[24.48658,46.51064],[24.48433,46.50938],[24.48395,46.50921],[24.4837,46.50914],[24.48341,46.50913],[24.48316,46.50916],[24.48222,46.50955],[24.48024,46.51012],[24.4797,46.51035],[24.4794,46.51061],[24.47831,46.51172],[24.47785,46.51208],[24.47746,46.51232],[24.4769,46.51251],[24.47631,46.5126],[24.47504,46.51257],[24.47444,46.5125],[24.47401,46.51237],[24.47349,46.51214],[24.47297,46.51179],[24.47273,46.51154],[24.47262,46.51132],[24.47231,46.51037],[24.47204,46.50998],[24.47185,46.50949],[24.47188,46.50889],[24.47238,46.50736],[24.47272,46.50682],[24.47281,46.50659],[24.47285,46.50634],[24.47283,46.50611],[24.47258,46.50556],[24.47226,46.50517],[24.47113,46.50414],[24.47052,46.50378],[24.46965,46.50343],[24.46866,46.50315],[24.46617,46.50258],[24.46541,46.50232],[24.46492,46.50204],[24.46426,46.50158],[24.46334,46.50028],[24.46223,46.49882],[24.46173,46.49836],[24.46143,46.49819],[24.46087,46.49802],[24.4602,46.49793],[24.45751,46.498],[24.45652,46.49796],[24.45621,46.49792],[24.45568,46.49774],[24.45234,46.49643],[24.45158,46.49609],[24.45072,46.49561],[24.44989,46.4952],[24.44873,46.49468],[24.44842,46.49445],[24.4481,46.49409],[24.44705,46.49171],[24.44611,46.49033],[24.44583,46.49004],[24.44541,46.48981],[24.44474,46.48956],[24.44396,46.48931],[24.44269,46.48909],[24.44202,46.48893],[24.44161,46.48877],[24.44115,46.48846],[24.44084,46.48819],[24.43957,46.48644],[24.43927,46.48612],[24.43808,46.48542],[24.43782,46.48517],[24.43768,46.48492],[24.43758,46.48486],[24.43744,46.48481],[24.43688,46.48471],[24.43599,46.48463],[24.43539,46.48463],[24.43412,46.48481],[24.43368,46.4848],[24.4332,46.48469],[24.43153,46.48395],[24.4297,46.483],[24.42642,46.4815],[24.42527,46.48116],[24.42446,46.48097],[24.42382,46.48089],[24.42292,46.48088],[24.42217,46.48096],[24.42164,46.48111],[24.4206,46.48149],[24.41978,46.48181],[24.41846,46.4824],[24.418,46.48256],[24.41768,46.48264],[24.4168,46.48278],[24.41639,46.48293],[24.41364,46.48426],[24.41064,46.48532],[24.40976,46.48573],[24.40948,46.48598],[24.40926,46.48638],[24.40926,46.48656],[24.40935,46.48678],[24.40954,46.4869],[24.40976,46.48699],[24.41096,46.48727],[24.41139,46.48739],[24.41171,46.48756],[24.41194,46.4878],[24.41211,46.48808],[24.41208,46.48827],[24.41196,46.48846],[24.41174,46.48867],[24.41145,46.48879],[24.41101,46.48887],[24.41054,46.48891],[24.4103,46.4889],[24.40921,46.48863],[24.40885,46.48859],[24.40691,46.48859],[24.40657,46.48854],[24.40488,46.48814],[24.40369,46.48781],[24.40341,46.4877],[24.40287,46.48741],[24.4016,46.48646],[24.40125,46.48624],[24.40069,46.48593],[24.40023,46.48572],[24.39968,46.48555],[24.39785,46.48516],[24.39741,46.48499],[24.39619,46.48409],[24.39366,46.48255],[24.39198,46.48143],[24.39143,46.48116],[24.39053,46.4809],[24.38951,46.48069],[24.38885,46.48052],[24.38701,46.47994],[24.38572,46.47979],[24.38509,46.47976],[24.38473,46.47971],[24.38445,46.47964],[24.38338,46.47908],[24.38232,46.47858],[24.38195,46.47843],[24.38154,46.47831],[24.38114,46.47824],[24.38073,46.47822],[24.38021,46.47828],[24.37781,46.47885],[24.37613,46.47937],[24.37504,46.47961],[24.37441,46.47971],[24.37355,46.47974],[24.37266,46.47966],[24.37174,46.47952],[24.37104,46.47936],[24.36941,46.47885],[24.36883,46.47865],[24.36741,46.47801],[24.36705,46.47781],[24.36563,46.47679],[24.36521,46.47659],[24.36322,46.47575],[24.36289,46.47558],[24.36222,46.47506],[24.36171,46.47473],[24.36053,46.47411],[24.35985,46.47367],[24.35884,46.47288],[24.3585,46.47253],[24.35834,46.4723],[24.35826,46.47204],[24.35823,46.47178],[24.35827,46.47119],[24.3582,46.47092],[24.35777,46.47038],[24.35738,46.47008],[24.35698,46.46991],[24.35657,46.4698],[24.35602,46.46976],[24.35555,46.46982],[24.35504,46.46995],[24.3531,46.47077],[24.35267,46.47087],[24.35217,46.47091],[24.35167,46.47085],[24.35112,46.47068],[24.35038,46.47034],[24.35,46.47013],[24.34976,46.46997],[24.34957,46.4698],[24.34953,46.46964],[24.34957,46.46938],[24.34985,46.46865],[24.34988,46.46824],[24.34979,46.46787],[24.34962,46.46747],[24.34933,46.46708],[24.34883,46.46675],[24.34825,46.46647],[24.34768,46.46623],[24.34683,46.46599],[24.34603,46.46569],[24.34547,46.46539],[24.34406,46.46426],[24.34313,46.46372],[24.34211,46.46333],[24.34105,46.46303],[24.34022,46.46294],[24.33924,46.46294],[24.33817,46.46301],[24.33725,46.46299],[24.33479,46.46286],[24.33432,46.46274],[24.33395,46.4626],[24.33361,46.46235],[24.33344,46.4621],[24.33325,46.46173],[24.33279,46.46048],[24.33264,46.45978],[24.33266,46.45882],[24.33261,46.45838],[24.33243,46.45791],[24.3322,46.45749],[24.33147,46.45674],[24.33086,46.45636],[24.33012,46.45598],[24.32961,46.45567],[24.32887,46.45512],[24.32842,46.45497],[24.32791,46.45483],[24.32735,46.45477],[24.32694,46.45468],[24.32642,46.45445],[24.32609,46.45418],[24.32591,46.45382],[24.32591,46.45321],[24.32616,46.45199],[24.3262,46.45136],[24.32608,46.45074],[24.32605,46.45033],[24.32607,46.45009],[24.32614,46.44985],[24.32633,46.44961],[24.32658,46.44937],[24.32697,46.4492],[24.32861,46.44867],[24.32919,46.44842],[24.32962,46.4482],[24.32998,46.44791],[24.33026,46.44764],[24.33037,46.44738],[24.33034,46.44711],[24.33022,46.44687],[24.33,46.4466],[24.32953,46.44629],[24.3291,46.44613],[24.32841,46.44604],[24.3279,46.44605],[24.32732,46.44613],[24.32687,46.44625],[24.32632,46.44653],[24.32591,46.4468],[24.32541,46.44742],[24.32495,46.44814],[24.32453,46.44866],[24.32402,46.44908],[24.32322,46.44962],[24.32219,46.45022],[24.32148,46.45079],[24.32091,46.45135],[24.32058,46.45159],[24.32028,46.45188],[24.31959,46.45295],[24.31909,46.45336],[24.31871,46.45358],[24.31793,46.45391],[24.31753,46.45397],[24.31706,46.45397],[24.31531,46.45381],[24.31477,46.45381],[24.31432,46.45385],[24.31387,46.45394],[24.31359,46.45404],[24.31339,46.4542],[24.31313,46.45459],[24.31318,46.45506],[24.31329,46.45528],[24.31352,46.45545],[24.31391,46.45568],[24.31429,46.45588],[24.3146,46.45598],[24.31501,46.45604],[24.31587,46.45606],[24.31724,46.45615],[24.31948,46.4562],[24.32021,46.45625],[24.32163,46.45651],[24.32243,46.45671],[24.32281,46.45683],[24.323,46.45693],[24.32309,46.45705],[24.32319,46.45737],[24.32336,46.4585],[24.3236,46.45971],[24.32395,46.46053],[24.32398,46.46084],[24.32386,46.46135],[24.32365,46.46178],[24.32338,46.46203],[24.32312,46.46215],[24.32275,46.46228],[24.32226,46.46234],[24.32194,46.46231],[24.32163,46.46222],[24.32085,46.46191],[24.32002,46.46154],[24.31534,46.45989],[24.31414,46.45942],[24.31007,46.4583],[24.30896,46.45795],[24.30798,46.45755],[24.30683,46.45716],[24.30638,46.45712],[24.30374,46.45701],[24.30268,46.45704],[24.30211,46.4571],[24.30016,46.45763],[24.29822,46.45833],[24.29706,46.45849],[24.29519,46.45863],[24.29464,46.45864],[24.29347,46.45853],[24.29237,46.45839],[24.29169,46.45827],[24.29125,46.45811],[24.29058,46.4578],[24.29022,46.45759],[24.29003,46.45738],[24.28989,46.45707],[24.28982,46.45672],[24.28977,46.45593],[24.28962,46.45557],[24.28932,46.45521],[24.28699,46.45321],[24.28526,46.45166],[24.28406,46.45073],[24.28327,46.44989],[24.28199,46.44796],[24.28159,46.44762],[24.28116,46.44741],[24.28071,46.44736],[24.28023,46.44738],[24.27985,46.44753],[24.27965,46.44775],[24.27949,46.44804],[24.27934,46.44865],[24.27936,46.44894],[24.27947,46.44922],[24.2805,46.45082],[24.28079,46.45138],[24.28095,46.45232],[24.28097,46.4529],[24.2809,46.45368],[24.28076,46.45452],[24.28058,46.45529],[24.28032,46.45576],[24.27987,46.45608],[24.2795,46.45621],[24.27893,46.45628],[24.27809,46.45647],[24.2768,46.45696],[24.27633,46.45708],[24.27595,46.45713],[24.27557,46.45712],[24.27511,46.45705],[24.2742,46.45675],[24.27359,46.45645],[24.27327,46.45621],[24.27305,46.45594],[24.2728,46.45543],[24.27268,46.45421],[24.27208,46.45243],[24.27194,46.45108],[24.27186,46.45089],[24.27166,46.45066],[24.27145,46.45055],[24.27121,46.45049],[24.27083,46.4505],[24.27051,46.45057],[24.26989,46.45093],[24.26909,46.45159],[24.2687,46.45178],[24.26831,46.45189],[24.26791,46.45191],[24.26757,46.45188],[24.26737,46.45182],[24.26713,46.45164],[24.26697,46.45134],[24.26669,46.45048],[24.26654,46.44966],[24.26589,46.44781],[24.2654,46.44689],[24.26518,46.44654],[24.26499,46.44637],[24.26466,46.44615],[24.26432,46.44603],[24.26356,46.4459],[24.26285,46.44588],[24.26192,46.44594],[24.26136,46.44611],[24.26078,46.44641],[24.25992,46.44713],[24.25964,46.44729],[24.25929,46.44742],[24.25848,46.44753],[24.25735,46.44755],[24.25587,46.44751],[24.2546,46.44738],[24.25378,46.44723],[24.25327,46.44709],[24.25263,46.44681],[24.25177,46.44628],[24.25117,46.44597],[24.25068,46.44585],[24.25007,46.44583],[24.24956,46.446],[24.24911,46.44631],[24.24872,46.44672],[24.24854,46.44721],[24.24848,46.44789],[24.24862,46.44878],[24.24862,46.44942],[24.24854,46.45004],[24.24773,46.4517]]},"properties":{"k":"river","n":"Mureș"}},{"type":"Feature","geometry":{"type":"LineString","coordinates":[[24.45315,46.48686],[24.45972,46.48974],[24.47149,46.49499]]},"properties":{"k":"rail"}},{"type":"Feature","geometry":{"type":"Polygon","coordinates":[[[24.48355,46.49276],[24.48478,46.49247],[24.48533,46.49323],[24.48379,46.49359],[24.48355,46.49276]]]},"properties":{"k":"water"}},{"type":"Feature","geometry":{"type":"Polygon","coordinates":[[[24.4834,46.49273],[24.48324,46.49194],[24.48365,46.49182],[24.48381,46.49257],[24.4834,46.49273]]]},"properties":{"k":"water"}},{"type":"Feature","geometry":{"type":"LineString","coordinates":[[24.47149,46.49499],[24.47161,46.49504]]},"properties":{"k":"rail"}},{"type":"Feature","geometry":{"type":"LineString","coordinates":[[24.47161,46.49504],[24.48531,46.50106]]},"properties":{"k":"rail"}},{"type":"Feature","geometry":{"type":"Polygon","coordinates":[[[24.46744,46.52057],[24.4676,46.52066],[24.46783,46.52072],[24.468,46.52083],[24.46814,46.52099],[24.46858,46.52123],[24.46924,46.52169],[24.46974,46.52194],[24.46982,46.52194],[24.46989,46.52183],[24.46984,46.52172],[24.47001,46.52152],[24.46997,46.5214],[24.47021,46.52123],[24.4703,46.52107],[24.4703,46.52095],[24.47,46.52083],[24.46991,46.5209],[24.46979,46.52088],[24.4697,46.52075],[24.46959,46.52074],[24.46948,46.52067],[24.46947,46.52058],[24.46949,46.5205],[24.46967,46.52042],[24.47009,46.52014],[24.4701,46.52011],[24.4691,46.51964],[24.46907,46.51959],[24.46912,46.51955],[24.46982,46.51977],[24.4699,46.51973],[24.47037,46.51881],[24.47014,46.51871],[24.46984,46.51868],[24.46948,46.51868],[24.46904,46.51855],[24.46827,46.51848],[24.46816,46.51849],[24.46807,46.51866],[24.46797,46.5187],[24.46793,46.51878],[24.4679,46.51891],[24.46794,46.51907],[24.46783,46.51928],[24.46785,46.51945],[24.4678,46.51957],[24.46775,46.51996],[24.4679,46.52003],[24.46771,46.52027],[24.46761,46.52031],[24.46749,46.52045],[24.46744,46.52057]]]},"properties":{"k":"water"}},{"type":"Feature","geometry":{"type":"Polygon","coordinates":[[[24.47423,46.51961],[24.47429,46.51961],[24.47435,46.51956],[24.47442,46.51958],[24.47439,46.51962],[24.47441,46.51981],[24.47434,46.52],[24.47418,46.52001],[24.47374,46.51991],[24.47337,46.51993],[24.47327,46.51995],[24.47312,46.52014],[24.47279,46.5202],[24.47288,46.52026],[24.4729,46.5204],[24.47317,46.52049],[24.47318,46.52056],[24.47311,46.52063],[24.4729,46.5207],[24.4729,46.52084],[24.47389,46.52096],[24.47408,46.52089],[24.47422,46.52092],[24.47424,46.52104],[24.47414,46.52108],[24.4741,46.5212],[24.474,46.52127],[24.47383,46.52123],[24.4737,46.52128],[24.47301,46.52117],[24.47297,46.52118],[24.47294,46.52125],[24.47286,46.52125],[24.47268,46.52121],[24.47261,46.5211],[24.47252,46.5211],[24.47251,46.52097],[24.47256,46.52095],[24.47259,46.52083],[24.4727,46.52069],[24.47249,46.52052],[24.47255,46.52023],[24.47245,46.51998],[24.47251,46.51984],[24.4725,46.51946],[24.47238,46.51946],[24.47237,46.51954],[24.47215,46.5199],[24.47202,46.51993],[24.47192,46.51991],[24.47179,46.52014],[24.4718,46.52022],[24.47217,46.52031],[24.47219,46.52033],[24.47209,46.5204],[24.47183,46.52037],[24.47124,46.52019],[24.47089,46.52016],[24.47093,46.52007],[24.47099,46.52003],[24.47141,46.51991],[24.47147,46.51992],[24.47146,46.52012],[24.4715,46.52015],[24.4716,46.52013],[24.47169,46.51989],[24.47149,46.51966],[24.47139,46.51964],[24.47134,46.51966],[24.47127,46.51979],[24.47092,46.51977],[24.47074,46.52003],[24.47069,46.52004],[24.47047,46.52],[24.4704,46.51992],[24.47012,46.51987],[24.47007,46.51979],[24.47037,46.5192],[24.4706,46.51882],[24.47065,46.51878],[24.47114,46.51885],[24.47216,46.51885],[24.47255,46.51899],[24.47254,46.51907],[24.47257,46.51909],[24.47351,46.51921],[24.47358,46.51925],[24.47358,46.51941],[24.47361,46.51944],[24.47423,46.51961]]]},"properties":{"k":"water"}},{"type":"Feature","geometry":{"type":"Polygon","coordinates":[[[24.47942,46.51729],[24.47931,46.51676],[24.47897,46.51665],[24.47873,46.51662],[24.47863,46.51666],[24.47858,46.5169],[24.47836,46.51689],[24.47833,46.51685],[24.47841,46.51683],[24.47833,46.51659],[24.47773,46.51652],[24.47757,46.51662],[24.47756,46.51668],[24.47775,46.51677],[24.47776,46.51683],[24.47799,46.51692],[24.47795,46.51695],[24.47763,46.51688],[24.47757,46.51712],[24.47942,46.51729]]]},"properties":{"k":"water"}},{"type":"Feature","geometry":{"type":"Polygon","coordinates":[[[24.47454,46.51991],[24.47458,46.51996],[24.47517,46.52003],[24.47723,46.52015],[24.47691,46.51949],[24.47606,46.51939],[24.47597,46.51944],[24.47574,46.51946],[24.47567,46.51952],[24.47482,46.51944],[24.47475,46.51951],[24.47458,46.51953],[24.47455,46.51959],[24.47459,46.51967],[24.47454,46.51991]]]},"properties":{"k":"water"}},{"type":"Feature","geometry":{"type":"Polygon","coordinates":[[[24.47483,46.51937],[24.47479,46.51936],[24.47475,46.5184],[24.47478,46.51816],[24.47475,46.51811],[24.47479,46.51793],[24.47485,46.51785],[24.4748,46.51771],[24.47491,46.51768],[24.47588,46.5178],[24.47651,46.51782],[24.47679,46.51785],[24.47683,46.5179],[24.47701,46.51794],[24.47706,46.51798],[24.47706,46.51841],[24.47711,46.51848],[24.47707,46.51853],[24.4771,46.51899],[24.47707,46.51903],[24.47653,46.51905],[24.47592,46.51918],[24.47545,46.51924],[24.47488,46.5192],[24.47483,46.51937]]]},"properties":{"k":"water"}},{"type":"Feature","geometry":{"type":"LineString","coordinates":[[24.51098,46.51242],[24.51183,46.51285],[24.51422,46.51415],[24.53637,46.52646],[24.54099,46.52899]]},"properties":{"k":"rail"}},{"type":"Feature","geometry":{"type":"LineString","coordinates":[[24.49284,46.5044],[24.51084,46.51236]]},"properties":{"k":"rail"}},{"type":"Feature","geometry":{"type":"Polygon","coordinates":[[[24.48537,46.49319],[24.48583,46.4931],[24.48599,46.49317],[24.48662,46.49292],[24.48668,46.49287],[24.48668,46.49283],[24.48558,46.4926],[24.48556,46.49272],[24.48546,46.49276],[24.48537,46.4929],[24.48523,46.49285],[24.48516,46.49288],[24.48537,46.49319]]]},"properties":{"k":"water"}},{"type":"Feature","geometry":{"type":"LineString","coordinates":[[24.48531,46.50106],[24.49284,46.5044]]},"properties":{"k":"rail"}},{"type":"Feature","geometry":{"type":"Polygon","coordinates":[[[24.49469,46.51233],[24.49747,46.51235],[24.49747,46.51349],[24.4974,46.51361],[24.49729,46.51367],[24.49701,46.51364],[24.49469,46.51247],[24.49469,46.51233]]]},"properties":{"k":"water"}},{"type":"Feature","geometry":{"type":"Polygon","coordinates":[[[24.49469,46.51225],[24.49747,46.51226],[24.49748,46.51195],[24.49783,46.51103],[24.49784,46.5109],[24.49777,46.51079],[24.49767,46.5107],[24.49752,46.51065],[24.49735,46.51064],[24.49705,46.51071],[24.49469,46.51204],[24.49469,46.51225]]]},"properties":{"k":"water"}},{"type":"Feature","geometry":{"type":"Polygon","coordinates":[[[24.49412,46.51244],[24.49354,46.51281],[24.49607,46.51455],[24.49679,46.51384],[24.49412,46.51244]]]},"properties":{"k":"water"}},{"type":"Feature","geometry":{"type":"LineString","coordinates":[[24.51084,46.51236],[24.51098,46.51242]]},"properties":{"k":"rail"}},{"type":"Feature","geometry":{"type":"Polygon","coordinates":[[[24.53447,46.51742],[24.53425,46.51723],[24.53429,46.51702],[24.53449,46.5168],[24.53495,46.51672],[24.53525,46.51693],[24.53579,46.51673],[24.53615,46.5169],[24.53649,46.51689],[24.53666,46.51711],[24.53711,46.51752],[24.53678,46.51759],[24.53622,46.51761],[24.53619,46.5175],[24.53604,46.51755],[24.53572,46.51728],[24.53569,46.51713],[24.53541,46.5172],[24.53526,46.51731],[24.53513,46.51735],[24.53502,46.51721],[24.53507,46.51699],[24.53489,46.51704],[24.53484,46.51721],[24.53462,46.51741],[24.53447,46.51742]]]},"properties":{"k":"water"}},{"type":"Feature","geometry":{"type":"Polygon","coordinates":[[[24.53179,46.51724],[24.53149,46.51698],[24.53147,46.51688],[24.53178,46.51653],[24.53227,46.51631],[24.53276,46.51623],[24.53361,46.51618],[24.5339,46.51635],[24.53426,46.51646],[24.53402,46.51671],[24.53347,46.51696],[24.53335,46.51723],[24.53299,46.51733],[24.53247,46.51726],[24.5323,46.51713],[24.53218,46.51693],[24.53211,46.51713],[24.53218,46.51728],[24.53179,46.51724]]]},"properties":{"k":"water"}},{"type":"Feature","geometry":{"type":"Polygon","coordinates":[[[24.46986,46.52263],[24.46982,46.5226],[24.47037,46.5214],[24.47043,46.52137],[24.47365,46.52219],[24.47308,46.52334],[24.47302,46.52337],[24.46986,46.52263]]]},"properties":{"k":"water"}},{"type":"Feature","geometry":{"type":"Polygon","coordinates":[[[24.54838,46.54753],[24.54834,46.54701],[24.5484,46.54658],[24.5484,46.54627],[24.54821,46.54576],[24.54813,46.54569],[24.54765,46.54552],[24.54715,46.54498],[24.54632,46.54443],[24.5459,46.54422],[24.54566,46.54414],[24.54514,46.54406],[24.54473,46.54402],[24.54389,46.54399],[24.54343,46.54394],[24.54312,46.54395],[24.54252,46.54409],[24.54186,46.54429],[24.54018,46.54502],[24.53945,46.54521],[24.53897,46.54525],[24.53846,46.54511],[24.53656,46.54482],[24.53627,46.54476],[24.53604,46.54467],[24.53341,46.54324],[24.53344,46.54321],[24.53347,46.54323],[24.53349,46.54318],[24.53352,46.54318],[24.53349,46.54317],[24.53353,46.54314],[24.53368,46.54325],[24.53568,46.54439],[24.53626,46.54461],[24.53649,46.54467],[24.53848,46.54497],[24.53883,46.54507],[24.53902,46.5451],[24.53954,46.54506],[24.53985,46.54497],[24.54133,46.54434],[24.54222,46.54405],[24.54305,46.54384],[24.54362,46.5438],[24.54519,46.54387],[24.54573,46.54396],[24.54622,46.54414],[24.54724,46.54484],[24.5477,46.54533],[24.5479,46.54545],[24.54827,46.54554],[24.54837,46.54561],[24.54855,46.54607],[24.5486,46.54636],[24.54854,46.5474],[24.54878,46.54772],[24.54903,46.54781],[24.55011,46.54806],[24.5525,46.54913],[24.55272,46.54925],[24.55306,46.54957],[24.55344,46.55],[24.5535,46.55011],[24.55368,46.55024],[24.55475,46.55142],[24.55522,46.5518],[24.55561,46.55205],[24.556,46.55223],[24.55778,46.55303],[24.55816,46.5533],[24.55821,46.55329],[24.56101,46.55498],[24.56105,46.55497],[24.56416,46.55679],[24.56433,46.55691],[24.56438,46.55691],[24.56545,46.55754],[24.56589,46.55791],[24.56751,46.55976],[24.56735,46.55982],[24.56576,46.55799],[24.56531,46.55761],[24.56374,46.55672],[24.56076,46.55494],[24.56072,46.55494],[24.55804,46.55335],[24.55804,46.55332],[24.55767,46.5531],[24.55761,46.5531],[24.5559,46.55233],[24.5555,46.55213],[24.55509,46.55188],[24.55417,46.55103],[24.5537,46.55052],[24.55347,46.55017],[24.55349,46.55016],[24.55332,46.55006],[24.55336,46.55022],[24.55329,46.55025],[24.55315,46.55011],[24.55289,46.54964],[24.55249,46.54929],[24.54989,46.54811],[24.54906,46.54792],[24.54871,46.54781],[24.54844,46.54763],[24.54838,46.54753]]]},"properties":{"k":"water","n":"Canalul Turbinei"}},{"type":"Feature","geometry":{"type":"Polygon","coordinates":[[[24.52339,46.53922],[24.5234,46.53914],[24.52363,46.53908],[24.5237,46.53912],[24.52378,46.53932],[24.52389,46.53932],[24.52439,46.54029],[24.52437,46.54033],[24.52414,46.54044],[24.52414,46.54048],[24.52418,46.54056],[24.52443,46.54052],[24.52449,46.54055],[24.52469,46.5411],[24.52494,46.5414],[24.52483,46.54156],[24.52475,46.5416],[24.52445,46.54159],[24.52446,46.54155],[24.52428,46.54148],[24.52418,46.54128],[24.52384,46.54082],[24.52391,46.54063],[24.52387,46.54059],[24.5238,46.5406],[24.52367,46.54055],[24.52353,46.54046],[24.52341,46.54045],[24.52336,46.54039],[24.52335,46.54013],[24.52327,46.54009],[24.52339,46.53922]]]},"properties":{"k":"water","n":"Hanul Pescarilor Garofița"}},{"type":"Feature","geometry":{"type":"Polygon","coordinates":[[[24.51653,46.54411],[24.51705,46.5443],[24.51752,46.5444],[24.51774,46.54414],[24.5177,46.54402],[24.51756,46.54401],[24.51732,46.54393],[24.51725,46.54387],[24.51734,46.54376],[24.51771,46.54389],[24.51771,46.54398],[24.51779,46.54398],[24.51785,46.54387],[24.51779,46.54379],[24.51727,46.54361],[24.51709,46.54362],[24.5169,46.54366],[24.51673,46.54376],[24.51653,46.54411]]]},"properties":{"k":"water"}},{"type":"Feature","geometry":{"type":"Polygon","coordinates":[[[24.51771,46.54442],[24.51798,46.54444],[24.5181,46.54448],[24.51816,46.54454],[24.51854,46.54463],[24.51866,46.54463],[24.51886,46.54429],[24.51884,46.54423],[24.51867,46.54415],[24.51812,46.54392],[24.51796,46.54392],[24.51771,46.54442]]]},"properties":{"k":"water"}},{"type":"Feature","geometry":{"type":"Polygon","coordinates":[[[24.53323,46.54315],[24.53183,46.54234],[24.5314,46.54217],[24.5311,46.54209],[24.5308,46.54205],[24.53009,46.54203],[24.52941,46.54206],[24.52872,46.54213],[24.52866,46.54202],[24.52926,46.54198],[24.53051,46.54195],[24.53082,46.54197],[24.53146,46.54209],[24.53212,46.54238],[24.5332,46.54299],[24.53353,46.54314],[24.53349,46.54317],[24.53346,46.54315],[24.53345,46.5432],[24.53341,46.54319],[24.53344,46.54321],[24.5334,46.54324],[24.53323,46.54315]]]},"properties":{"k":"water"}},{"type":"Feature","geometry":{"type":"Polygon","coordinates":[[[24.51004,46.55389],[24.51014,46.55394],[24.51036,46.55391],[24.51045,46.55379],[24.51071,46.55358],[24.51086,46.55328],[24.51112,46.55291],[24.51112,46.55286],[24.51102,46.55275],[24.51111,46.5526],[24.51118,46.55254],[24.5114,46.55261],[24.51174,46.55239],[24.5115,46.55224],[24.51104,46.55256],[24.51087,46.55277],[24.51032,46.55272],[24.51029,46.55275],[24.51,46.55349],[24.51004,46.55389]]]},"properties":{"k":"water"}},{"type":"Feature","geometry":{"type":"LineString","coordinates":[[24.54099,46.52899],[24.55058,46.53432]]},"properties":{"k":"rail"}},{"type":"Feature","geometry":{"type":"Polygon","coordinates":[[[24.57421,46.5373],[24.57177,46.5367],[24.56668,46.53578],[24.56636,46.53578],[24.56512,46.53585],[24.56266,46.53669],[24.56252,46.53677],[24.56138,46.53774],[24.55895,46.53874],[24.55892,46.53866],[24.56125,46.53772],[24.5624,46.53675],[24.56262,46.53663],[24.56494,46.53583],[24.56522,46.53577],[24.56626,46.53566],[24.56667,46.53567],[24.56724,46.53575],[24.57185,46.5366],[24.57671,46.5378],[24.57939,46.5385],[24.58069,46.53829],[24.58317,46.53812],[24.58456,46.53798],[24.58519,46.53781],[24.58598,46.53746],[24.58648,46.53714],[24.58691,46.5368],[24.58711,46.53668],[24.58734,46.53662],[24.5881,46.53652],[24.58841,46.53641],[24.58903,46.53612],[24.5893,46.53591],[24.59007,46.53496],[24.59036,46.53468],[24.59084,46.53428],[24.59105,46.53434],[24.59045,46.53479],[24.59009,46.53519],[24.58957,46.53585],[24.58917,46.53616],[24.58846,46.53652],[24.58802,46.53664],[24.58717,46.53678],[24.58701,46.53687],[24.58649,46.53728],[24.58592,46.53759],[24.58517,46.53792],[24.58452,46.5381],[24.58316,46.53823],[24.58117,46.53834],[24.58072,46.53838],[24.57938,46.53859],[24.57695,46.53796],[24.57421,46.5373]]]},"properties":{"k":"water","n":"Pârâul Pocloș"}},{"type":"Feature","geometry":{"type":"LineString","coordinates":[[24.55036,46.5451],[24.54909,46.5478]]},"properties":{"k":"rail"}},{"type":"Feature","geometry":{"type":"Polygon","coordinates":[[[24.54837,46.54561],[24.55005,46.54502],[24.55041,46.54508],[24.5506,46.54506],[24.55113,46.54482],[24.55225,46.54448],[24.55259,46.54426],[24.55277,46.54412],[24.55417,46.54236],[24.5543,46.54207],[24.55479,46.54054],[24.55498,46.54027],[24.5553,46.54006],[24.55626,46.53984],[24.55762,46.5393],[24.55801,46.53914],[24.558,46.53905],[24.55619,46.53977],[24.55594,46.53984],[24.55541,46.53993],[24.55525,46.53998],[24.55488,46.54022],[24.55467,46.54052],[24.55415,46.54214],[24.55404,46.54234],[24.55272,46.54396],[24.55236,46.5443],[24.552,46.54447],[24.55104,46.54475],[24.55055,46.54499],[24.55008,46.54494],[24.54991,46.54497],[24.54894,46.54533],[24.54827,46.54554],[24.54837,46.54561]]]},"properties":{"k":"water","n":"Pârâul Pocloș"}},{"type":"Feature","geometry":{"type":"LineString","coordinates":[[24.55058,46.53432],[24.55142,46.53472]]},"properties":{"k":"rail"}},{"type":"Feature","geometry":{"type":"Polygon","coordinates":[[[24.56259,46.54585],[24.56123,46.54479],[24.56124,46.54474],[24.56137,46.54464],[24.56144,46.54464],[24.563,46.54557],[24.56302,46.54565],[24.56271,46.54586],[24.56259,46.54585]]]},"properties":{"k":"park"}},{"type":"Feature","geometry":{"type":"LineString","coordinates":[[24.55142,46.53472],[24.55207,46.53514],[24.55236,46.53539],[24.55258,46.53563],[24.55289,46.53615],[24.55301,46.53675],[24.55298,46.53904],[24.5529,46.53954],[24.55277,46.53993],[24.55043,46.54497]]},"properties":{"k":"rail"}},{"type":"Feature","geometry":{"type":"LineString","coordinates":[[24.55043,46.54497],[24.55036,46.5451]]},"properties":{"k":"rail"}},{"type":"Feature","geometry":{"type":"Polygon","coordinates":[[[24.58261,46.52998],[24.58262,46.53001],[24.58319,46.53002],[24.5834,46.53006],[24.5835,46.53014],[24.58353,46.53021],[24.58349,46.53041],[24.58375,46.5302],[24.5839,46.53013],[24.58464,46.52995],[24.58479,46.53019],[24.58503,46.53047],[24.58511,46.5305],[24.58535,46.53085],[24.58543,46.53117],[24.586,46.53104],[24.58639,46.53106],[24.5865,46.53115],[24.58671,46.53118],[24.58757,46.53098],[24.58813,46.53079],[24.5872,46.52904],[24.58296,46.52996],[24.58261,46.52998]]]},"properties":{"k":"park","n":"Green Park Substejeriș"}},{"type":"Feature","geometry":{"type":"LineString","coordinates":[[24.54909,46.5478],[24.54899,46.54798]]},"properties":{"k":"rail"}},{"type":"Feature","geometry":{"type":"LineString","coordinates":[[24.54899,46.54798],[24.54825,46.54934],[24.54806,46.5499],[24.54801,46.55056],[24.54813,46.55104],[24.54838,46.55148],[24.54867,46.55185],[24.54903,46.55215],[24.54944,46.55241],[24.55176,46.55342],[24.55282,46.55376],[24.55336,46.55385],[24.55406,46.55389],[24.55469,46.55387],[24.55533,46.55382],[24.55603,46.55371],[24.55789,46.55331]]},"properties":{"k":"rail"}},{"type":"Feature","geometry":{"type":"Polygon","coordinates":[[[24.55013,46.54924],[24.55096,46.54905],[24.55186,46.54946],[24.55192,46.54959],[24.55209,46.54955],[24.55217,46.54959],[24.55194,46.54972],[24.55166,46.5497],[24.5511,46.54999],[24.55088,46.55003],[24.55076,46.54984],[24.55047,46.5499],[24.55054,46.55017],[24.55006,46.55024],[24.55018,46.54967],[24.55013,46.54924]]]},"properties":{"k":"park","n":"Parcul Municipal"}},{"type":"Feature","geometry":{"type":"LineString","coordinates":[[24.55816,46.55325],[24.55789,46.55331]]},"properties":{"k":"rail"}},{"type":"Feature","geometry":{"type":"LineString","coordinates":[[24.55816,46.55325],[24.55908,46.55306],[24.55965,46.55298],[24.56058,46.553],[24.56136,46.55316],[24.56326,46.55374],[24.56373,46.55394],[24.56435,46.55425],[24.56942,46.55686]]},"properties":{"k":"rail"}},{"type":"Feature","geometry":{"type":"Polygon","coordinates":[[[24.56676,46.55305],[24.56719,46.55279],[24.56719,46.55271],[24.56555,46.55145],[24.56665,46.55303],[24.56676,46.55305]]]},"properties":{"k":"park","n":"Piața Republicii"}},{"type":"Feature","geometry":{"type":"LineString","coordinates":[[24.57973,46.56135],[24.57445,46.55944],[24.57358,46.55904],[24.57241,46.55839],[24.56942,46.55686]]},"properties":{"k":"rail"}},{"type":"Feature","geometry":{"type":"Polygon","coordinates":[[[24.57569,46.5621],[24.57569,46.56151],[24.57631,46.56157],[24.5765,46.56156],[24.57662,46.56151],[24.57694,46.56131],[24.577,46.5612],[24.57697,46.56104],[24.57688,46.56095],[24.57662,46.56086],[24.57592,46.56076],[24.57455,46.56042],[24.57427,46.56024],[24.57416,46.56011],[24.57402,46.55983],[24.5737,46.55965],[24.57356,46.55963],[24.57347,46.55969],[24.57347,46.55977],[24.57358,46.55987],[24.57377,46.55996],[24.57408,46.56032],[24.57417,46.5608],[24.57388,46.56082],[24.57388,46.56086],[24.57378,46.56086],[24.57314,46.55976],[24.57308,46.55974],[24.57301,46.55975],[24.57245,46.55995],[24.5723,46.55956],[24.57221,46.55951],[24.57087,46.55966],[24.57002,46.5599],[24.56964,46.56031],[24.56949,46.56042],[24.56926,46.5605],[24.56878,46.56047],[24.56869,46.56045],[24.56854,46.56025],[24.56881,46.55984],[24.56883,46.55969],[24.56989,46.55953],[24.57123,46.55941],[24.57302,46.55919],[24.57328,46.55922],[24.57351,46.55929],[24.57432,46.55969],[24.57529,46.56027],[24.57677,46.56053],[24.57702,46.56065],[24.57744,46.56102],[24.57755,46.56117],[24.57758,46.56132],[24.57754,46.56144],[24.57738,46.56163],[24.57691,46.56198],[24.57669,46.5621],[24.57646,46.56216],[24.5762,46.56219],[24.57569,46.5621]]]},"properties":{"k":"water"}},{"type":"Feature","geometry":{"type":"Polygon","coordinates":[[[24.58695,46.54808],[24.58727,46.54913],[24.58767,46.54973],[24.58787,46.55068],[24.58797,46.55077],[24.58812,46.55081],[24.58836,46.55079],[24.58854,46.55072],[24.58864,46.55062],[24.58864,46.55051],[24.58791,46.54794],[24.58695,46.54808]]]},"properties":{"k":"park","n":"Platoul Cornești"}},{"type":"Feature","geometry":{"type":"Polygon","coordinates":[[[24.57402,46.57024],[24.57438,46.57063],[24.57529,46.57028],[24.57495,46.5699],[24.57488,46.56988],[24.57405,46.5702],[24.57402,46.57024]]]},"properties":{"k":"water"}},{"type":"Feature","geometry":{"type":"Polygon","coordinates":[[[24.57312,46.57058],[24.57345,46.57098],[24.5735,46.57099],[24.57419,46.57069],[24.57421,46.57063],[24.57392,46.57029],[24.57386,46.57028],[24.57314,46.57056],[24.57312,46.57058]]]},"properties":{"k":"water"}},{"type":"Feature","geometry":{"type":"LineString","coordinates":[[24.58957,46.56843],[24.58815,46.56646],[24.58772,46.56599],[24.58722,46.5655],[24.58649,46.56498],[24.58394,46.56343],[24.5819,46.56222],[24.58142,46.56198],[24.57973,46.56135]]},"properties":{"k":"rail"}},{"type":"Feature","geometry":{"type":"Polygon","coordinates":[[[24.59112,46.53406],[24.59128,46.53412],[24.59163,46.53386],[24.59229,46.53355],[24.59293,46.53338],[24.5932,46.53336],[24.59343,46.53337],[24.59374,46.53349],[24.59415,46.5338],[24.59498,46.53416],[24.59519,46.53421],[24.59544,46.53419],[24.5966,46.53372],[24.59675,46.53369],[24.5967,46.53364],[24.59615,46.53381],[24.59538,46.53414],[24.59516,46.53415],[24.59498,46.53411],[24.5941,46.53371],[24.59378,46.53345],[24.59343,46.53333],[24.59319,46.53329],[24.59287,46.53331],[24.59224,46.5335],[24.59153,46.5338],[24.59112,46.53406]]]},"properties":{"k":"water"}},{"type":"Feature","geometry":{"type":"LineString","coordinates":[[24.60733,46.59272],[24.5936,46.57392],[24.5897,46.56863]]},"properties":{"k":"rail"}},{"type":"Feature","geometry":{"type":"LineString","coordinates":[[24.5897,46.56863],[24.58957,46.56843]]},"properties":{"k":"rail"}},{"type":"Feature","geometry":{"type":"Polygon","coordinates":[[[24.60357,46.57567],[24.60433,46.5761],[24.60484,46.57652],[24.60367,46.57734],[24.60206,46.5763],[24.60309,46.57542],[24.60357,46.57567]]]},"properties":{"k":"park"}},{"type":"Feature","geometry":{"type":"LineString","coordinates":[[24.63953,46.64074],[24.63804,46.63576],[24.63752,46.63427],[24.63681,46.63287],[24.62785,46.62067],[24.6196,46.60934],[24.60974,46.59603],[24.6074,46.59282]]},"properties":{"k":"rail"}},{"type":"Feature","geometry":{"type":"LineString","coordinates":[[24.6074,46.59282],[24.60733,46.59272]]},"properties":{"k":"rail"}}]}